start=new Date('2022-08-25T00:00:00.000Z').valueOf();
sats=[{"INCLINATION":"53.0540","ELEMENT_SET_NO":"999","RCS_SIZE":"LARGE","PERIAPSIS":"546.109","EPOCH":"2022-08-24T08:09:11.561760","TLE_LINE1":"1 48139U 21027AZ  22236.33971715 -.00000450  00000-0 -11300-4 0  9998","SEMIMAJOR_AXIS":"6925.356","NORAD_CAT_ID":"48139","TIME_SYSTEM":"UTC","REF_FRAME":"TEME","APOAPSIS":"548.332","MEAN_MOTION_DDOT":"0.0000000000000","COUNTRY_CODE":"US","EPHEMERIS_TYPE":"0","OBJECT_TYPE":"PAYLOAD","BSTAR":"-0.00001130000000","REV_AT_EPOCH":"7776","OBJECT_NAME":"STARLINK-2482","MEAN_ANOMALY":"289.0116","RA_OF_ASC_NODE":"197.7032","ECCENTRICITY":"0.00016050","GP_ID":"210901770","SITE":"AFETR","ARG_OF_PERICENTER":"71.1046","TLE_LINE2":"2 48139  53.0540 197.7032 0001605  71.1046 289.0116 15.06397579 77760","PERIOD":"95.592","OBJECT_ID":"2021-027AZ","MEAN_MOTION_DOT":"-0.00000450","MEAN_MOTION":"15.06397579","DECAY_DATE":null,"CENTER_NAME":"EARTH","LAUNCH_DATE":"2021-04-07","MEAN_ELEMENT_THEORY":"SGP4","FILE":"3546350","CLASSIFICATION_TYPE":"U"},{"ARG_OF_PERICENTER":"76.1374","GP_ID":"210933627","ECCENTRICITY":"0.00017810","SITE":"AFETR","MEAN_ANOMALY":"283.9813","RA_OF_ASC_NODE":"216.3574","OBJECT_ID":"2021-027BA","TLE_LINE2":"2 48140  53.0529 216.3574 0001781  76.1374 283.9813 15.06388780 77527","PERIOD":"95.593","LAUNCH_DATE":"2021-04-07","MEAN_ELEMENT_THEORY":"SGP4","DECAY_DATE":null,"CENTER_NAME":"EARTH","MEAN_MOTION_DOT":"-0.00001106","MEAN_MOTION":"15.06388780","FILE":"3546663","CLASSIFICATION_TYPE":"U","PERIAPSIS":"546.015","EPOCH":"2022-08-24T15:20:25.423296","RCS_SIZE":"LARGE","ELEMENT_SET_NO":"999","INCLINATION":"53.0529","TIME_SYSTEM":"UTC","NORAD_CAT_ID":"48140","TLE_LINE1":"1 48140U 21027BA  22236.63918314 -.00001106  00000-0 -55379-4 0  9992","SEMIMAJOR_AXIS":"6925.383","COUNTRY_CODE":"US","MEAN_MOTION_DDOT":"0.0000000000000","APOAPSIS":"548.481","REF_FRAME":"TEME","REV_AT_EPOCH":"7752","OBJECT_NAME":"STARLINK-2483","BSTAR":"-0.00005537900000","EPHEMERIS_TYPE":"0","OBJECT_TYPE":"PAYLOAD"},{"REF_FRAME":"TEME","COUNTRY_CODE":"US","MEAN_MOTION_DDOT":"0.0000000000000","APOAPSIS":"548.459","OBJECT_TYPE":"PAYLOAD","EPHEMERIS_TYPE":"0","REV_AT_EPOCH":"7749","OBJECT_NAME":"STARLINK-2484","BSTAR":"0.00012193000000","ELEMENT_SET_NO":"999","INCLINATION":"53.0533","EPOCH":"2022-08-24T07:55:55.320096","PERIAPSIS":"545.959","RCS_SIZE":"LARGE","NORAD_CAT_ID":"48141","SEMIMAJOR_AXIS":"6925.344","TLE_LINE1":"1 48141U 21027BB  22236.33050139  .00001535  00000-0  12193-3 0  9992","TIME_SYSTEM":"UTC","CENTER_NAME":"EARTH","DECAY_DATE":null,"MEAN_MOTION":"15.06401378","MEAN_MOTION_DOT":"0.00001535","MEAN_ELEMENT_THEORY":"SGP4","LAUNCH_DATE":"2021-04-07","CLASSIFICATION_TYPE":"U","FILE":"3546350","RA_OF_ASC_NODE":"217.7244","MEAN_ANOMALY":"298.2258","ARG_OF_PERICENTER":"61.8914","SITE":"AFETR","ECCENTRICITY":"0.00018050","GP_ID":"210900773","OBJECT_ID":"2021-027BB","PERIOD":"95.592","TLE_LINE2":"2 48141  53.0533 217.7244 0001805  61.8914 298.2258 15.06401378 77497"},{"INCLINATION":"53.0537","ELEMENT_SET_NO":"999","RCS_SIZE":"LARGE","EPOCH":"2022-08-24T06:28:20.146368","PERIAPSIS":"546.303","SEMIMAJOR_AXIS":"6925.386","TLE_LINE1":"1 48142U 21027BC  22236.26967762  .00001829  00000-0  14169-3 0  9995","NORAD_CAT_ID":"48142","TIME_SYSTEM":"UTC","REF_FRAME":"TEME","MEAN_MOTION_DDOT":"0.0000000000000","APOAPSIS":"548.199","COUNTRY_CODE":"US","OBJECT_TYPE":"PAYLOAD","EPHEMERIS_TYPE":"0","BSTAR":"0.00014169000000","OBJECT_NAME":"STARLINK-2485","REV_AT_EPOCH":"7775","RA_OF_ASC_NODE":"198.0179","MEAN_ANOMALY":"288.6456","SITE":"AFETR","ECCENTRICITY":"0.00013690","GP_ID":"210901023","ARG_OF_PERICENTER":"71.4681","PERIOD":"95.593","TLE_LINE2":"2 48142  53.0537 198.0179 0001369  71.4681 288.6456 15.06387727 77756","OBJECT_ID":"2021-027BC","MEAN_MOTION":"15.06387727","MEAN_MOTION_DOT":"0.00001829","CENTER_NAME":"EARTH","DECAY_DATE":null,"LAUNCH_DATE":"2021-04-07","MEAN_ELEMENT_THEORY":"SGP4","CLASSIFICATION_TYPE":"U","FILE":"3546350"},{"MEAN_ANOMALY":"283.5985","RA_OF_ASC_NODE":"150.4144","SITE":"AFETR","ECCENTRICITY":"0.00014260","GP_ID":"210933377","ARG_OF_PERICENTER":"76.5163","PERIOD":"95.593","TLE_LINE2":"2 48143  53.0554 150.4144 0001426  76.5163 283.5985 15.06394078 78462","OBJECT_ID":"2021-027BD","MEAN_MOTION":"15.06394078","MEAN_MOTION_DOT":"0.00000726","CENTER_NAME":"EARTH","DECAY_DATE":null,"MEAN_ELEMENT_THEORY":"SGP4","LAUNCH_DATE":"2021-04-07","CLASSIFICATION_TYPE":"U","FILE":"3546663","INCLINATION":"53.0554","ELEMENT_SET_NO":"999","RCS_SIZE":"LARGE","EPOCH":"2022-08-24T20:23:37.867776","PERIAPSIS":"546.244","SEMIMAJOR_AXIS":"6925.367","TLE_LINE1":"1 48143U 21027BD  22236.84974384  .00000726  00000-0  67637-4 0  9992","NORAD_CAT_ID":"48143","TIME_SYSTEM":"UTC","REF_FRAME":"TEME","APOAPSIS":"548.219","MEAN_MOTION_DDOT":"0.0000000000000","COUNTRY_CODE":"US","OBJECT_TYPE":"PAYLOAD","EPHEMERIS_TYPE":"0","BSTAR":"0.00006763700000","REV_AT_EPOCH":"7846","OBJECT_NAME":"STARLINK-2486"},{"CLASSIFICATION_TYPE":"U","FILE":"3546350","CENTER_NAME":"EARTH","DECAY_DATE":null,"MEAN_MOTION":"15.06387259","MEAN_MOTION_DOT":"-0.00000113","MEAN_ELEMENT_THEORY":"SGP4","LAUNCH_DATE":"2021-04-07","OBJECT_ID":"2021-027BE","PERIOD":"95.593","TLE_LINE2":"2 48144  53.0551 197.6876 0001737  74.2495 285.8686 15.06387259 77750","RA_OF_ASC_NODE":"197.6876","MEAN_ANOMALY":"285.8686","ARG_OF_PERICENTER":"74.2495","SITE":"AFETR","GP_ID":"210902024","ECCENTRICITY":"0.00017370","OBJECT_TYPE":"PAYLOAD","EPHEMERIS_TYPE":"0","REV_AT_EPOCH":"7775","OBJECT_NAME":"STARLINK-2487","BSTAR":"0.00001134800000","REF_FRAME":"TEME","COUNTRY_CODE":"US","MEAN_MOTION_DDOT":"0.0000000000000","APOAPSIS":"548.456","NORAD_CAT_ID":"48144","SEMIMAJOR_AXIS":"6925.388","TLE_LINE1":"1 48144U 21027BE  22236.34341369 -.00000113  00000-0  11348-4 0  9998","TIME_SYSTEM":"UTC","ELEMENT_SET_NO":"999","INCLINATION":"53.0551","EPOCH":"2022-08-24T08:14:30.942816","PERIAPSIS":"546.050","RCS_SIZE":"LARGE"},{"EPHEMERIS_TYPE":"0","OBJECT_TYPE":"PAYLOAD","REV_AT_EPOCH":"7775","OBJECT_NAME":"STARLINK-2488","BSTAR":"0.00003769000000","REF_FRAME":"TEME","COUNTRY_CODE":"US","MEAN_MOTION_DDOT":"0.0000000000000","APOAPSIS":"548.454","NORAD_CAT_ID":"48145","TLE_LINE1":"1 48145U 21027BF  22236.28075388  .00000280  00000-0  37690-4 0  9999","SEMIMAJOR_AXIS":"6925.367","TIME_SYSTEM":"UTC","ELEMENT_SET_NO":"999","INCLINATION":"53.0541","PERIAPSIS":"546.010","EPOCH":"2022-08-24T06:44:17.135232","RCS_SIZE":"MEDIUM","FILE":"3546350","CLASSIFICATION_TYPE":"U","DECAY_DATE":null,"CENTER_NAME":"EARTH","MEAN_MOTION_DOT":"0.00000280","MEAN_MOTION":"15.06393985","LAUNCH_DATE":"2021-04-07","MEAN_ELEMENT_THEORY":"SGP4","OBJECT_ID":"2021-027BF","TLE_LINE2":"2 48145  53.0541 197.9685 0001765  71.4892 288.6288 15.06393985 77754","PERIOD":"95.593","RA_OF_ASC_NODE":"197.9685","MEAN_ANOMALY":"288.6288","ARG_OF_PERICENTER":"71.4892","ECCENTRICITY":"0.00017650","GP_ID":"210900274","SITE":"AFETR"},{"REV_AT_EPOCH":"7748","OBJECT_NAME":"STARLINK-2489","BSTAR":"0.00010125000000","EPHEMERIS_TYPE":"0","OBJECT_TYPE":"PAYLOAD","COUNTRY_CODE":"US","APOAPSIS":"548.345","MEAN_MOTION_DDOT":"0.0000000000000","REF_FRAME":"TEME","TIME_SYSTEM":"UTC","NORAD_CAT_ID":"48146","TLE_LINE1":"1 48146U 21027BG  22236.34524454  .00001227  00000-0  10125-3 0  9995","SEMIMAJOR_AXIS":"6925.334","PERIAPSIS":"546.054","EPOCH":"2022-08-24T08:17:09.128256","RCS_SIZE":"LARGE","ELEMENT_SET_NO":"999","INCLINATION":"53.0543","FILE":"3546350","CLASSIFICATION_TYPE":"U","LAUNCH_DATE":"2021-04-07","MEAN_ELEMENT_THEORY":"SGP4","DECAY_DATE":null,"CENTER_NAME":"EARTH","MEAN_MOTION_DOT":"0.00001227","MEAN_MOTION":"15.06404689","OBJECT_ID":"2021-027BG","TLE_LINE2":"2 48146  53.0543 217.6810 0001654  73.2779 286.8392 15.06404689 77488","PERIOD":"95.592","ARG_OF_PERICENTER":"73.2779","ECCENTRICITY":"0.00016540","GP_ID":"210900524","SITE":"AFETR","RA_OF_ASC_NODE":"217.6810","MEAN_ANOMALY":"286.8392"},{"LAUNCH_DATE":"2021-04-07","MEAN_ELEMENT_THEORY":"SGP4","CENTER_NAME":"EARTH","DECAY_DATE":null,"MEAN_MOTION":"15.06401038","MEAN_MOTION_DOT":"0.00001163","CLASSIFICATION_TYPE":"U","FILE":"3546350","ARG_OF_PERICENTER":"67.1101","SITE":"AFETR","ECCENTRICITY":"0.00018750","GP_ID":"210901771","MEAN_ANOMALY":"293.0086","RA_OF_ASC_NODE":"222.6879","OBJECT_ID":"2021-027BH","PERIOD":"95.592","TLE_LINE2":"2 48147  53.0545 222.6879 0001875  67.1101 293.0086 15.06401038 77416","COUNTRY_CODE":"US","APOAPSIS":"548.509","MEAN_MOTION_DDOT":"0.0000000000000","REF_FRAME":"TEME","REV_AT_EPOCH":"7741","OBJECT_NAME":"STARLINK-2490","BSTAR":"0.00009698900000","OBJECT_TYPE":"PAYLOAD","EPHEMERIS_TYPE":"0","EPOCH":"2022-08-24T08:13:50.513664","PERIAPSIS":"545.912","RCS_SIZE":"MEDIUM","ELEMENT_SET_NO":"999","INCLINATION":"53.0545","TIME_SYSTEM":"UTC","NORAD_CAT_ID":"48147","SEMIMAJOR_AXIS":"6925.345","TLE_LINE1":"1 48147U 21027BH  22236.34294576  .00001163  00000-0  96989-4 0  9997"},{"FILE":"3546350","CLASSIFICATION_TYPE":"U","MEAN_MOTION_DOT":"-0.00000015","MEAN_MOTION":"15.06398701","DECAY_DATE":null,"CENTER_NAME":"EARTH","LAUNCH_DATE":"2021-04-07","MEAN_ELEMENT_THEORY":"SGP4","TLE_LINE2":"2 48148  53.0537 217.5143 0001654  73.6110 286.5060 15.06398701 77479","PERIOD":"95.592","OBJECT_ID":"2021-027BJ","MEAN_ANOMALY":"286.5060","RA_OF_ASC_NODE":"217.5143","ECCENTRICITY":"0.00016540","GP_ID":"210901525","SITE":"AFETR","ARG_OF_PERICENTER":"73.6110","EPHEMERIS_TYPE":"0","OBJECT_TYPE":"PAYLOAD","BSTAR":"0.00001789200000","OBJECT_NAME":"STARLINK-2491","REV_AT_EPOCH":"7747","REF_FRAME":"TEME","APOAPSIS":"548.363","MEAN_MOTION_DDOT":"0.0000000000000","COUNTRY_CODE":"US","TLE_LINE1":"1 48148U 21027BJ  22236.37841905 -.00000015  00000-0  17892-4 0  9997","SEMIMAJOR_AXIS":"6925.353","NORAD_CAT_ID":"48148","TIME_SYSTEM":"UTC","INCLINATION":"53.0537","ELEMENT_SET_NO":"999","RCS_SIZE":"LARGE","PERIAPSIS":"546.072","EPOCH":"2022-08-24T09:04:55.405920"}];
